<?xml version="1.0" encoding="UTF-8"?>
<kml xmlns="http://www.opengis.net/kml/2.2">
  <Document>
    <name>Directions from Shop # 3, Deccan Gymkhana, near IT Park, Pulachi Wadi, Deccan Gymkhana, Pune, Maharashtra 411004, India to 1154, Ferguson College Rd, Rage Path, Model Colony, Shivajinagar, Pune, Maharashtra 411016, India</name>
    <Style id="icon-1899-DB4436-nodesc-normal">
      <IconStyle>
        <color>ff3644db</color>
        <scale>1</scale>
        <Icon>
          <href>https://www.gstatic.com/mapspro/images/stock/503-wht-blank_maps.png</href>
        </Icon>
        <hotSpot x="32" xunits="pixels" y="64" yunits="insetPixels"/>
      </IconStyle>
      <LabelStyle>
        <scale>0</scale>
      </LabelStyle>
      <BalloonStyle>
        <text><![CDATA[<h3>$[name]</h3>]]></text>
      </BalloonStyle>
    </Style>
    <Style id="icon-1899-DB4436-nodesc-highlight">
      <IconStyle>
        <color>ff3644db</color>
        <scale>1</scale>
        <Icon>
          <href>https://www.gstatic.com/mapspro/images/stock/503-wht-blank_maps.png</href>
        </Icon>
        <hotSpot x="32" xunits="pixels" y="64" yunits="insetPixels"/>
      </IconStyle>
      <LabelStyle>
        <scale>1</scale>
      </LabelStyle>
      <BalloonStyle>
        <text><![CDATA[<h3>$[name]</h3>]]></text>
      </BalloonStyle>
    </Style>
    <StyleMap id="icon-1899-DB4436-nodesc">
      <Pair>
        <key>normal</key>
        <styleUrl>#icon-1899-DB4436-nodesc-normal</styleUrl>
      </Pair>
      <Pair>
        <key>highlight</key>
        <styleUrl>#icon-1899-DB4436-nodesc-highlight</styleUrl>
      </Pair>
    </StyleMap>
    <Style id="line-1267FF-5000-nodesc-normal">
      <LineStyle>
        <color>ffff6712</color>
        <width>5</width>
      </LineStyle>
      <BalloonStyle>
        <text><![CDATA[<h3>$[name]</h3>]]></text>
      </BalloonStyle>
    </Style>
    <Style id="line-1267FF-5000-nodesc-highlight">
      <LineStyle>
        <color>ffff6712</color>
        <width>7.5</width>
      </LineStyle>
      <BalloonStyle>
        <text><![CDATA[<h3>$[name]</h3>]]></text>
      </BalloonStyle>
    </Style>
    <StyleMap id="line-1267FF-5000-nodesc">
      <Pair>
        <key>normal</key>
        <styleUrl>#line-1267FF-5000-nodesc-normal</styleUrl>
      </Pair>
      <Pair>
        <key>highlight</key>
        <styleUrl>#line-1267FF-5000-nodesc-highlight</styleUrl>
      </Pair>
    </StyleMap>
    <Placemark>
      <name>Directions from Shop # 3, Deccan Gymkhana, near IT Park, Pulachi Wadi, Deccan Gymkhana, Pune, Maharashtra 411004, India to 1154, Ferguson College Rd, Rage Path, Model Colony, Shivajinagar, Pune, Maharashtra 411016, India</name>
      <styleUrl>#line-1267FF-5000-nodesc</styleUrl>
      <LineString>
        <tessellate>1</tessellate>
        <coordinates>
          73.84207,18.51595,0
          73.84204,18.51601,0
          73.84203,18.51606,0
          73.84202,18.51607,0
          73.84199,18.5161,0
          73.84197,18.51619,0
          73.84193,18.51631,0
          73.84189,18.51643,0
          73.84181,18.51669,0
          73.84174,18.51696,0
          73.84168,18.51724,0
          73.84163,18.5175,0
          73.84162,18.51757,0
          73.84149,18.5183,0
          73.84148,18.51836,0
          73.84139,18.51898,0
          73.84137,18.51907,0
          73.84131,18.51935,0
          73.84128,18.51957,0
          73.84124,18.51993,0
          73.84117,18.52042,0
          73.84116,18.52054,0
          73.84114,18.52073,0
          73.84108,18.52105,0
          73.84107,18.5211,0
          73.84105,18.52123,0
          73.84104,18.52132,0
          73.84104,18.52134,0
          73.84097,18.52198,0
          73.84097,18.52203,0
          73.84095,18.52263,0
          73.84116,18.52363,0
          73.8414,18.52457,0
          73.84141,18.52465,0
          73.84146,18.52481,0
          73.84161,18.52541,0
          73.84163,18.5255,0
          73.8417,18.52573,0
          73.84175,18.52591,0
          73.84176,18.52595,0
          73.8419,18.52636,0
          73.84191,18.52639,0
          73.842,18.52658,0
          73.84221,18.52691,0
          73.84235,18.52717,0
          73.84243,18.52735,0
          73.84246,18.5274,0
          73.84248,18.52743,0
          73.84254,18.52756,0
          73.84278,18.52801,0
          73.84283,18.52814,0
          73.84288,18.52821,0
          73.84297,18.52838,0
          73.84316,18.52874,0
          73.84351,18.52939,0
          73.84368,18.52972,0
          73.84376,18.52988,0
          73.8438,18.52994,0
          73.84385,18.53004,0
          73.84401,18.53032,0
          73.84451,18.53124,0
        </coordinates>
      </LineString>
    </Placemark>
    <Placemark>
      <name>Shop # 3, Deccan Gymkhana, near IT Park, Pulachi Wadi, Deccan Gymkhana, Pune, Maharashtra 411004, India</name>
      <styleUrl>#icon-1899-DB4436-nodesc</styleUrl>
      <Point>
        <coordinates>
          73.8420698,18.5159505,0
        </coordinates>
      </Point>
    </Placemark>
    <Placemark>
      <name>1154, Ferguson College Rd, Rage Path, Model Colony, Shivajinagar, Pune, Maharashtra 411016, India</name>
      <styleUrl>#icon-1899-DB4436-nodesc</styleUrl>
      <Point>
        <coordinates>
          73.844514,18.5312398,0
        </coordinates>
      </Point>
    </Placemark>
  </Document>
</kml>
