<?xml version="1.0" encoding="UTF-8"?>
<kml xmlns="http://www.opengis.net/kml/2.2">
  <Document>
    <name>Untitled map</name>
    <description/>
    <Style id="icon-1899-DB4436-nodesc-normal">
      <IconStyle>
        <color>ff3644db</color>
        <scale>1</scale>
        <Icon>
          <href>https://www.gstatic.com/mapspro/images/stock/503-wht-blank_maps.png</href>
        </Icon>
        <hotSpot x="32" xunits="pixels" y="64" yunits="insetPixels"/>
      </IconStyle>
      <LabelStyle>
        <scale>0</scale>
      </LabelStyle>
      <BalloonStyle>
        <text><![CDATA[<h3>$[name]</h3>]]></text>
      </BalloonStyle>
    </Style>
    <Style id="icon-1899-DB4436-nodesc-highlight">
      <IconStyle>
        <color>ff3644db</color>
        <scale>1</scale>
        <Icon>
          <href>https://www.gstatic.com/mapspro/images/stock/503-wht-blank_maps.png</href>
        </Icon>
        <hotSpot x="32" xunits="pixels" y="64" yunits="insetPixels"/>
      </IconStyle>
      <LabelStyle>
        <scale>1</scale>
      </LabelStyle>
      <BalloonStyle>
        <text><![CDATA[<h3>$[name]</h3>]]></text>
      </BalloonStyle>
    </Style>
    <StyleMap id="icon-1899-DB4436-nodesc">
      <Pair>
        <key>normal</key>
        <styleUrl>#icon-1899-DB4436-nodesc-normal</styleUrl>
      </Pair>
      <Pair>
        <key>highlight</key>
        <styleUrl>#icon-1899-DB4436-nodesc-highlight</styleUrl>
      </Pair>
    </StyleMap>
    <Style id="line-1267FF-5000-nodesc-normal">
      <LineStyle>
        <color>ffff6712</color>
        <width>5</width>
      </LineStyle>
      <BalloonStyle>
        <text><![CDATA[<h3>$[name]</h3>]]></text>
      </BalloonStyle>
    </Style>
    <Style id="line-1267FF-5000-nodesc-highlight">
      <LineStyle>
        <color>ffff6712</color>
        <width>7.5</width>
      </LineStyle>
      <BalloonStyle>
        <text><![CDATA[<h3>$[name]</h3>]]></text>
      </BalloonStyle>
    </Style>
    <StyleMap id="line-1267FF-5000-nodesc">
      <Pair>
        <key>normal</key>
        <styleUrl>#line-1267FF-5000-nodesc-normal</styleUrl>
      </Pair>
      <Pair>
        <key>highlight</key>
        <styleUrl>#line-1267FF-5000-nodesc-highlight</styleUrl>
      </Pair>
    </StyleMap>
    <Folder>
      <name>FC_Road</name>
      <Placemark>
        <name>FC_Road</name>
        <styleUrl>#line-1267FF-5000-nodesc</styleUrl>
        <LineString>
          <tessellate>1</tessellate>
          <coordinates>
            73.84207,18.51595,0
            73.84204,18.51601,0
            73.84203,18.51606,0
            73.84202,18.51607,0
            73.84199,18.5161,0
            73.84197,18.51619,0
            73.84193,18.51631,0
            73.84189,18.51643,0
            73.84181,18.51669,0
            73.84174,18.51696,0
            73.84168,18.51724,0
            73.84163,18.5175,0
            73.84162,18.51757,0
            73.84149,18.5183,0
            73.84148,18.51836,0
            73.84139,18.51898,0
            73.84137,18.51907,0
            73.84131,18.51935,0
            73.84128,18.51957,0
            73.84124,18.51993,0
            73.84117,18.52042,0
            73.84116,18.52054,0
            73.84114,18.52073,0
            73.84108,18.52105,0
            73.84107,18.5211,0
            73.84105,18.52123,0
            73.84104,18.52132,0
            73.84104,18.52134,0
            73.84097,18.52198,0
            73.84097,18.52203,0
            73.84095,18.52263,0
            73.84116,18.52363,0
            73.8414,18.52457,0
            73.84141,18.52465,0
            73.84146,18.52481,0
            73.84161,18.52541,0
            73.84163,18.5255,0
            73.8417,18.52573,0
            73.84175,18.52591,0
            73.84176,18.52595,0
            73.8419,18.52636,0
            73.84191,18.52639,0
            73.842,18.52658,0
            73.84221,18.52691,0
            73.84235,18.52717,0
            73.84243,18.52735,0
            73.84246,18.5274,0
            73.84248,18.52743,0
            73.84254,18.52756,0
            73.84278,18.52801,0
            73.84283,18.52814,0
            73.84288,18.52821,0
            73.84297,18.52838,0
            73.84316,18.52874,0
            73.84351,18.52939,0
            73.84368,18.52972,0
            73.84376,18.52988,0
            73.8438,18.52994,0
            73.84385,18.53004,0
            73.84401,18.53032,0
            73.84451,18.53124,0
          </coordinates>
        </LineString>
      </Placemark>
      <Placemark>
        <name>Shop # 3, Deccan Gymkhana, near IT Park, Pulachi Wadi, Deccan Gymkhana, Pune, Maharashtra 411004, India</name>
        <styleUrl>#icon-1899-DB4436-nodesc</styleUrl>
        <Point>
          <coordinates>
            73.8420698,18.5159505,0
          </coordinates>
        </Point>
      </Placemark>
      <Placemark>
        <name>1154, Ferguson College Rd, Rage Path, Model Colony, Shivajinagar, Pune, Maharashtra 411016, India</name>
        <styleUrl>#icon-1899-DB4436-nodesc</styleUrl>
        <Point>
          <coordinates>
            73.844514,18.5312398,0
          </coordinates>
        </Point>
      </Placemark>
    </Folder>
    <Folder>
      <name>JM_Road</name>
      <Placemark>
        <name>JM_Road</name>
        <styleUrl>#line-1267FF-5000-nodesc</styleUrl>
        <LineString>
          <tessellate>1</tessellate>
          <coordinates>
            73.85109,18.52724,0
            73.85102,18.52715,0
            73.85076,18.52679,0
            73.85071,18.52672,0
            73.85063,18.52659,0
            73.85052,18.52643,0
            73.85035,18.52614,0
            73.84992,18.5255,0
            73.84971,18.52519,0
            73.8496,18.52501,0
            73.84954,18.52493,0
            73.84947,18.52482,0
            73.84898,18.52408,0
            73.84883,18.52385,0
            73.84857,18.52345,0
            73.84854,18.52339,0
            73.84816,18.52283,0
            73.84809,18.52276,0
            73.84778,18.52238,0
            73.84771,18.52229,0
            73.84733,18.52186,0
            73.84678,18.52121,0
            73.84626,18.52054,0
            73.84616,18.52043,0
            73.84596,18.52018,0
            73.84592,18.52014,0
            73.84559,18.51974,0
            73.84494,18.51898,0
            73.84467,18.51867,0
            73.84454,18.51853,0
            73.84442,18.51838,0
            73.84397,18.51786,0
            73.84389,18.51776,0
            73.84309,18.51687,0
            73.84303,18.51679,0
            73.84276,18.51642,0
            73.84269,18.51631,0
            73.84262,18.51622,0
            73.84256,18.51613,0
            73.84251,18.51603,0
          </coordinates>
        </LineString>
      </Placemark>
      <Placemark>
        <name>GVG2+WFR, Jangali Maharaj Rd, Shivajinagar, Pune, Maharashtra 411005, India</name>
        <styleUrl>#icon-1899-DB4436-nodesc</styleUrl>
        <Point>
          <coordinates>
            73.851093,18.5272363,0
          </coordinates>
        </Point>
      </Placemark>
      <Placemark>
        <name>GR8R+CXQ, HongKong Ln, Pulachi Wadi, Deccan Gymkhana, Pune, Maharashtra 411004, India</name>
        <styleUrl>#icon-1899-DB4436-nodesc</styleUrl>
        <Point>
          <coordinates>
            73.8425091,18.5160329,0
          </coordinates>
        </Point>
      </Placemark>
    </Folder>
    <Folder>
      <name>Karve_Road</name>
      <Placemark>
        <name>Karve_Road</name>
        <styleUrl>#line-1267FF-5000-nodesc</styleUrl>
        <LineString>
          <tessellate>1</tessellate>
          <coordinates>
            73.80547,18.48031,0
            73.80555,18.48034,0
            73.80563,18.48038,0
            73.80568,18.48041,0
            73.80573,18.48043,0
            73.80579,18.48047,0
            73.80585,18.48052,0
            73.80599,18.48066,0
            73.80607,18.48074,0
            73.80629,18.48096,0
            73.80648,18.48112,0
            73.80657,18.48121,0
            73.80686,18.48143,0
            73.80707,18.4816,0
            73.80718,18.48167,0
            73.80737,18.48179,0
            73.80787,18.48215,0
            73.80866,18.48281,0
            73.80896,18.48303,0
            73.80913,18.48311,0
            73.80939,18.48331,0
            73.80957,18.48346,0
            73.80972,18.4836,0
            73.80981,18.4837,0
            73.80991,18.48381,0
            73.80993,18.48384,0
            73.81021,18.48424,0
            73.81033,18.48448,0
            73.81042,18.48461,0
            73.81059,18.48483,0
            73.81081,18.48506,0
            73.81095,18.48522,0
            73.81109,18.48543,0
            73.81154,18.48594,0
            73.81185,18.4863,0
            73.81188,18.48633,0
            73.81193,18.48638,0
            73.81224,18.48674,0
            73.81229,18.4868,0
            73.81233,18.48685,0
            73.81244,18.48698,0
            73.81252,18.48707,0
            73.81256,18.48711,0
            73.81292,18.48753,0
            73.81311,18.48776,0
            73.81317,18.48783,0
            73.81323,18.4879,0
            73.81352,18.48823,0
            73.81362,18.48833,0
            73.81372,18.48844,0
            73.81376,18.48848,0
            73.81379,18.48851,0
            73.81387,18.48859,0
            73.81396,18.48867,0
            73.81404,18.48876,0
            73.81411,18.48882,0
            73.81415,18.48886,0
            73.81419,18.48891,0
            73.81427,18.489,0
            73.81446,18.4892,0
            73.81464,18.48942,0
            73.8147,18.48951,0
            73.81479,18.48966,0
            73.81483,18.48972,0
            73.81487,18.48978,0
            73.81488,18.48981,0
            73.81491,18.48985,0
            73.81494,18.48992,0
            73.815,18.49005,0
            73.81503,18.49014,0
            73.81505,18.49021,0
            73.81508,18.49037,0
            73.81509,18.49054,0
            73.81511,18.49071,0
            73.81513,18.49099,0
            73.81514,18.49104,0
            73.81514,18.49108,0
            73.81515,18.49113,0
            73.81516,18.49123,0
            73.8152,18.49183,0
            73.81521,18.49204,0
            73.81521,18.4923,0
            73.81521,18.49254,0
            73.81521,18.4926,0
            73.8152,18.49275,0
            73.81517,18.49287,0
            73.81513,18.49301,0
            73.81506,18.49314,0
            73.81499,18.49321,0
            73.8149,18.49326,0
            73.81474,18.49334,0
            73.81448,18.49348,0
            73.81404,18.49371,0
            73.81381,18.49383,0
            73.81372,18.49389,0
            73.81364,18.49396,0
            73.81364,18.49397,0
            73.81358,18.49402,0
            73.81351,18.4941,0
            73.81339,18.49423,0
            73.81335,18.49427,0
            73.81327,18.49439,0
            73.81325,18.49446,0
            73.81323,18.49454,0
            73.81322,18.49463,0
            73.81322,18.49473,0
            73.81322,18.49475,0
            73.81325,18.49491,0
            73.81325,18.49492,0
            73.8133,18.49527,0
            73.81338,18.49574,0
            73.81343,18.49597,0
            73.81343,18.49598,0
            73.81343,18.49599,0
            73.81347,18.49615,0
            73.81357,18.49666,0
            73.81366,18.49713,0
            73.8137,18.49734,0
            73.81373,18.49759,0
            73.81374,18.49771,0
            73.81375,18.4978,0
            73.81375,18.49787,0
            73.81374,18.49794,0
            73.81373,18.49799,0
            73.81367,18.49828,0
            73.81365,18.49853,0
            73.81366,18.49873,0
            73.81366,18.4989,0
            73.81366,18.499,0
            73.81365,18.49928,0
            73.81365,18.49945,0
            73.81366,18.49963,0
            73.81367,18.49974,0
            73.81372,18.4999,0
            73.8138,18.50009,0
            73.81383,18.50017,0
            73.81399,18.50061,0
            73.81412,18.5009,0
            73.8142,18.50106,0
            73.81427,18.50118,0
            73.81436,18.50129,0
            73.81442,18.50137,0
            73.8145,18.50146,0
            73.81455,18.50153,0
            73.81466,18.50162,0
            73.81474,18.50167,0
            73.81499,18.5018,0
            73.81512,18.50187,0
            73.81515,18.50189,0
            73.81519,18.50191,0
            73.81523,18.50194,0
            73.81525,18.50196,0
            73.81532,18.50204,0
            73.81535,18.50216,0
            73.8155,18.50216,0
            73.81567,18.50217,0
            73.81595,18.50221,0
            73.81652,18.5023,0
            73.81681,18.50236,0
            73.81718,18.50245,0
            73.81738,18.50251,0
            73.81759,18.50258,0
            73.81791,18.50268,0
            73.81842,18.50283,0
            73.8187,18.50292,0
            73.81874,18.50293,0
            73.81878,18.50294,0
            73.81881,18.50295,0
            73.81918,18.50308,0
            73.81923,18.5031,0
            73.81928,18.50311,0
            73.81932,18.50313,0
            73.81934,18.50314,0
            73.81941,18.50316,0
            73.81945,18.50318,0
            73.81949,18.5032,0
            73.81956,18.50323,0
            73.81967,18.50328,0
            73.81975,18.50333,0
            73.81988,18.50341,0
            73.81993,18.50345,0
            73.82043,18.50382,0
            73.82075,18.50404,0
            73.82101,18.5042,0
            73.82113,18.50427,0
            73.82149,18.50448,0
            73.82157,18.50453,0
            73.82187,18.50468,0
            73.82209,18.50478,0
            73.82224,18.50485,0
            73.82255,18.50499,0
            73.82283,18.50511,0
            73.823,18.50518,0
            73.82328,18.50528,0
            73.82345,18.50534,0
            73.82364,18.5054,0
            73.82395,18.50549,0
            73.82411,18.50553,0
            73.8242,18.50555,0
            73.82466,18.50567,0
            73.82492,18.50573,0
            73.82511,18.50578,0
            73.82531,18.50583,0
            73.82546,18.50602,0
            73.82551,18.50602,0
            73.82555,18.50603,0
            73.82561,18.50604,0
            73.82579,18.50609,0
            73.8258,18.50609,0
            73.82628,18.50626,0
            73.82685,18.50652,0
            73.82702,18.5066,0
            73.82768,18.5069,0
            73.82778,18.50695,0
            73.82796,18.50704,0
            73.82884,18.5075,0
            73.82888,18.50751,0
            73.82891,18.50751,0
            73.82894,18.50752,0
            73.82902,18.50754,0
            73.82902,18.50755,0
            73.82907,18.50757,0
            73.82913,18.5076,0
            73.8292,18.50763,0
            73.82945,18.50775,0
            73.82954,18.5078,0
            73.82962,18.50784,0
            73.82969,18.50788,0
            73.82978,18.50792,0
            73.82989,18.50797,0
            73.82995,18.508,0
            73.83003,18.50804,0
            73.83012,18.50809,0
            73.83029,18.50817,0
            73.83032,18.50818,0
            73.83046,18.50825,0
            73.83048,18.50826,0
            73.83053,18.50829,0
            73.83054,18.50829,0
            73.83075,18.50839,0
            73.83079,18.50842,0
            73.83087,18.50845,0
            73.83096,18.5085,0
            73.8311,18.50857,0
            73.83121,18.50863,0
            73.83122,18.50863,0
            73.83137,18.50872,0
            73.83148,18.50878,0
            73.83163,18.50886,0
            73.83165,18.50887,0
            73.83168,18.50888,0
            73.83181,18.50895,0
            73.83188,18.50899,0
            73.83206,18.50908,0
            73.83212,18.50912,0
            73.83214,18.50913,0
            73.83231,18.50922,0
            73.83236,18.50925,0
            73.83262,18.50939,0
            73.83264,18.5094,0
            73.83273,18.50945,0
            73.83295,18.50957,0
            73.83303,18.50961,0
            73.83328,18.50974,0
            73.83335,18.50977,0
            73.83348,18.50984,0
            73.8336,18.5099,0
            73.83361,18.50991,0
            73.83362,18.50991,0
            73.83363,18.50992,0
            73.83365,18.50995,0
            73.83369,18.51,0
            73.83402,18.51016,0
            73.83415,18.51022,0
            73.83471,18.5105,0
            73.83517,18.51071,0
            73.83532,18.51077,0
            73.83582,18.511,0
            73.83637,18.51127,0
            73.83669,18.51143,0
            73.83731,18.51173,0
            73.83811,18.51214,0
            73.83819,18.51218,0
            73.83881,18.51249,0
            73.83937,18.51274,0
            73.83958,18.51283,0
            73.83984,18.51294,0
            73.84006,18.51301,0
            73.84025,18.51309,0
            73.84048,18.51318,0
            73.84054,18.5132,0
            73.84087,18.51335,0
            73.84103,18.51344,0
            73.84111,18.5135,0
            73.84118,18.51356,0
            73.84129,18.51366,0
            73.84148,18.51383,0
            73.84162,18.51395,0
            73.84179,18.5141,0
            73.84205,18.51433,0
            73.84214,18.51442,0
            73.84214,18.51445,0
            73.84214,18.51447,0
            73.84219,18.51455,0
          </coordinates>
        </LineString>
      </Placemark>
      <Placemark>
        <name>15, Warje, Pune, Maharashtra 411058, India</name>
        <styleUrl>#icon-1899-DB4436-nodesc</styleUrl>
        <Point>
          <coordinates>
            73.8054661,18.4803132,0
          </coordinates>
        </Point>
      </Placemark>
      <Placemark>
        <name>759-5, Deccan Gymkhana, Pune, Maharashtra 411004, India</name>
        <styleUrl>#icon-1899-DB4436-nodesc</styleUrl>
        <Point>
          <coordinates>
            73.8421905,18.5145534,0
          </coordinates>
        </Point>
      </Placemark>
    </Folder>
    <Folder>
      <name>Shivaji_Road</name>
      <Placemark>
        <name>Shivaji_Road</name>
        <styleUrl>#line-1267FF-5000-nodesc</styleUrl>
        <LineString>
          <tessellate>1</tessellate>
          <coordinates>
            73.85303,18.52599,0
            73.85317,18.52586,0
            73.85323,18.52577,0
            73.85328,18.52567,0
            73.85362,18.52488,0
            73.85371,18.52467,0
            73.85378,18.52463,0
            73.85393,18.52429,0
            73.85402,18.52409,0
            73.85411,18.52391,0
            73.85417,18.52377,0
            73.85424,18.52362,0
            73.85427,18.52354,0
            73.85434,18.5234,0
            73.85443,18.52322,0
            73.8545,18.52304,0
            73.85464,18.52273,0
            73.85483,18.52229,0
            73.85488,18.52216,0
            73.85498,18.52194,0
            73.85504,18.52179,0
            73.85508,18.52176,0
            73.8551,18.52173,0
            73.85521,18.52153,0
            73.85531,18.52137,0
            73.85535,18.52126,0
            73.85539,18.52114,0
            73.85542,18.52106,0
            73.85549,18.52094,0
            73.85553,18.52089,0
            73.85557,18.52083,0
            73.85562,18.52076,0
            73.85571,18.52066,0
            73.8558,18.52056,0
            73.85589,18.52047,0
            73.85597,18.52038,0
            73.85604,18.52031,0
            73.85606,18.52029,0
            73.85609,18.52024,0
            73.85613,18.52019,0
            73.85616,18.52013,0
            73.85618,18.5201,0
            73.85619,18.51974,0
            73.85621,18.51919,0
            73.85628,18.51855,0
            73.85628,18.51824,0
            73.85629,18.51781,0
            73.85628,18.5174,0
            73.85628,18.51727,0
            73.85629,18.51688,0
            73.85624,18.51632,0
            73.85626,18.51596,0
            73.8563,18.51562,0
            73.85637,18.51529,0
            73.85639,18.51516,0
            73.8566,18.51477,0
            73.85668,18.51468,0
            73.85693,18.51432,0
            73.85704,18.51414,0
            73.85726,18.51366,0
            73.85732,18.5135,0
            73.85742,18.51322,0
            73.8576,18.51272,0
            73.85765,18.51263,0
            73.85769,18.5125,0
            73.85772,18.5124,0
            73.85777,18.51227,0
            73.85784,18.51203,0
            73.85788,18.51189,0
            73.85789,18.51183,0
            73.8579,18.51175,0
            73.8579,18.51168,0
            73.85791,18.51157,0
            73.85791,18.51138,0
            73.85792,18.511,0
            73.85793,18.51078,0
            73.85793,18.51064,0
            73.85793,18.5104,0
            73.85793,18.51004,0
            73.85794,18.50982,0
            73.85797,18.50955,0
            73.85802,18.5092,0
            73.85804,18.5088,0
            73.85805,18.50861,0
            73.85805,18.50853,0
            73.85805,18.50836,0
            73.85806,18.50813,0
            73.85806,18.50769,0
            73.85806,18.50754,0
            73.85809,18.50697,0
            73.85809,18.50662,0
            73.85814,18.50651,0
            73.85822,18.50634,0
            73.8583,18.50621,0
            73.85838,18.50609,0
            73.85844,18.50599,0
            73.8585,18.50587,0
            73.85854,18.5058,0
            73.85861,18.5057,0
            73.85869,18.50545,0
            73.85879,18.50509,0
            73.85885,18.50486,0
            73.85899,18.50438,0
            73.85905,18.5043,0
            73.85907,18.50425,0
            73.85908,18.50421,0
            73.8591,18.5041,0
            73.85908,18.50391,0
            73.85903,18.50367,0
            73.85886,18.50269,0
            73.85879,18.50246,0
            73.85876,18.50229,0
            73.85864,18.50173,0
            73.85859,18.50142,0
            73.85853,18.50102,0
            73.85851,18.50089,0
            73.85847,18.50075,0
            73.85858,18.50059,0
            73.85857,18.50047,0
            73.85856,18.50034,0
            73.85854,18.50011,0
            73.85847,18.49966,0
            73.85843,18.49939,0
            73.85843,18.49923,0
            73.85841,18.499,0
            73.85838,18.49882,0
            73.85836,18.49864,0
            73.85835,18.49861,0
            73.85828,18.49815,0
            73.85828,18.49811,0
            73.85828,18.4981,0
            73.85825,18.49792,0
            73.85822,18.49775,0
            73.85819,18.49759,0
            73.85819,18.49757,0
            73.85816,18.4974,0
            73.85816,18.49739,0
            73.85813,18.49721,0
            73.85813,18.49717,0
            73.85812,18.49712,0
            73.8581,18.49704,0
            73.85808,18.49693,0
            73.85808,18.49689,0
            73.85808,18.49686,0
            73.85808,18.49676,0
            73.85809,18.49668,0
            73.85809,18.49664,0
            73.85811,18.49645,0
            73.85813,18.49627,0
            73.85813,18.49618,0
            73.85813,18.49615,0
            73.85813,18.49611,0
            73.85813,18.49609,0
            73.85813,18.49607,0
            73.85813,18.49606,0
            73.85812,18.49591,0
            73.85812,18.49588,0
            73.8581,18.49573,0
            73.85808,18.49543,0
            73.85807,18.49536,0
            73.85805,18.4951,0
            73.85803,18.49475,0
            73.85802,18.49457,0
            73.85799,18.49433,0
            73.858,18.49419,0
            73.85799,18.49401,0
            73.85798,18.49382,0
            73.85794,18.49319,0
            73.85789,18.49278,0
            73.85786,18.49252,0
            73.85786,18.49244,0
            73.85784,18.49223,0
            73.85783,18.49196,0
            73.8578,18.4916,0
            73.85779,18.49128,0
            73.85778,18.4909,0
            73.85777,18.49082,0
            73.8577,18.49041,0
            73.85766,18.48998,0
            73.85759,18.4894,0
            73.85758,18.48927,0
            73.85756,18.48825,0
            73.85758,18.48794,0
            73.85758,18.48784,0
            73.85759,18.48768,0
            73.85764,18.4871,0
            73.85763,18.48696,0
            73.85772,18.48584,0
            73.85773,18.48559,0
            73.85773,18.48515,0
            73.85772,18.48483,0
            73.8577,18.48441,0
            73.85768,18.48426,0
            73.85767,18.4842,0
            73.85764,18.48393,0
            73.85763,18.48386,0
            73.85756,18.48367,0
            73.85755,18.4836,0
            73.85749,18.48334,0
            73.85743,18.48298,0
            73.8574,18.48281,0
            73.85739,18.48276,0
            73.85738,18.48266,0
            73.85736,18.48241,0
            73.85733,18.48129,0
            73.85732,18.48125,0
            73.85732,18.48117,0
            73.85731,18.48042,0
            73.85731,18.48034,0
            73.85731,18.48026,0
            73.85731,18.48016,0
            73.85731,18.47992,0
            73.85733,18.47955,0
            73.85733,18.47884,0
            73.85732,18.47873,0
            73.85732,18.47844,0
            73.85731,18.47803,0
            73.85728,18.47758,0
            73.85724,18.47738,0
            73.85722,18.47728,0
            73.85715,18.47713,0
            73.8571,18.47707,0
            73.85688,18.4768,0
            73.85684,18.47673,0
            73.8568,18.47669,0
            73.85663,18.47646,0
            73.85657,18.47636,0
            73.8565,18.47623,0
            73.85646,18.47613,0
            73.85644,18.47607,0
            73.85642,18.476,0
            73.85641,18.4759,0
            73.85638,18.47573,0
            73.85637,18.47547,0
            73.85639,18.47485,0
            73.8564,18.47447,0
            73.85643,18.47409,0
            73.85645,18.47384,0
            73.85646,18.47369,0
            73.85647,18.47361,0
            73.85649,18.47345,0
            73.85651,18.47333,0
            73.85657,18.47305,0
            73.85667,18.47264,0
            73.85674,18.4724,0
            73.85677,18.47229,0
            73.85689,18.47183,0
            73.85692,18.47174,0
            73.85693,18.47169,0
            73.85699,18.4715,0
            73.85706,18.47126,0
            73.85709,18.47114,0
            73.85712,18.47099,0
            73.85715,18.47086,0
            73.85717,18.47076,0
            73.85719,18.47066,0
            73.85721,18.47055,0
            73.85748,18.4697,0
            73.85752,18.46955,0
            73.85757,18.46937,0
            73.85761,18.46921,0
            73.85765,18.46903,0
            73.85774,18.46848,0
            73.85776,18.46842,0
            73.85778,18.46823,0
            73.85787,18.46769,0
            73.85792,18.46728,0
            73.85796,18.46698,0
            73.85802,18.4664,0
            73.85806,18.46596,0
            73.85808,18.46575,0
            73.85809,18.46565,0
            73.8581,18.46556,0
            73.85816,18.46489,0
            73.85822,18.46423,0
            73.85823,18.46418,0
            73.85823,18.46411,0
            73.85824,18.46407,0
            73.85827,18.46368,0
            73.85828,18.46356,0
            73.85829,18.46339,0
            73.85829,18.46326,0
            73.85829,18.46317,0
            73.85829,18.46298,0
            73.85829,18.46281,0
            73.85828,18.46276,0
            73.85828,18.46275,0
            73.85828,18.4627,0
            73.85828,18.46269,0
            73.85828,18.46266,0
            73.85827,18.46259,0
            73.85825,18.46227,0
            73.85824,18.46216,0
            73.85823,18.46197,0
            73.85817,18.46153,0
            73.85815,18.46114,0
            73.85815,18.46096,0
            73.85814,18.4608,0
            73.85812,18.46033,0
            73.85808,18.45936,0
            73.85808,18.45921,0
            73.85809,18.45908,0
            73.85811,18.45891,0
            73.85815,18.45865,0
            73.85817,18.45853,0
            73.85822,18.45833,0
            73.85831,18.45793,0
            73.85833,18.45781,0
            73.85839,18.4576,0
            73.85842,18.4575,0
            73.85843,18.45746,0
            73.85844,18.45743,0
            73.85845,18.45737,0
            73.85853,18.45711,0
            73.85855,18.45703,0
            73.85859,18.45685,0
            73.85861,18.45676,0
            73.85862,18.45671,0
            73.85863,18.45667,0
            73.85864,18.45661,0
            73.85865,18.45649,0
            73.85867,18.45633,0
            73.85868,18.45617,0
            73.85878,18.45543,0
            73.85878,18.4554,0
            73.85879,18.45528,0
            73.8588,18.45512,0
            73.8588,18.45499,0
            73.85878,18.45467,0
            73.85877,18.45463,0
            73.85877,18.45458,0
            73.85873,18.45438,0
            73.85871,18.4543,0
            73.85868,18.45412,0
            73.8586,18.45367,0
            73.85846,18.45297,0
            73.85832,18.45203,0
            73.85827,18.45171,0
            73.85822,18.45133,0
            73.8582,18.45118,0
            73.8582,18.45114,0
            73.8582,18.45096,0
            73.85821,18.45072,0
            73.85824,18.45043,0
            73.85834,18.44984,0
            73.8584,18.44939,0
            73.85844,18.44901,0
            73.85844,18.44897,0
            73.85846,18.44874,0
            73.85849,18.44859,0
            73.85852,18.44844,0
            73.85854,18.44836,0
          </coordinates>
        </LineString>
      </Placemark>
      <Placemark>
        <name>GVG3+95M, MH SH 114, Gaothan, Shivajinagar, Pune, Maharashtra 411005, India</name>
        <styleUrl>#icon-1899-DB4436-nodesc</styleUrl>
        <Point>
          <coordinates>
            73.8530316,18.5259921,0
          </coordinates>
        </Point>
      </Placemark>
      <Placemark>
        <name>411046, Katraj - Ambegaon BK Rd, near Katraj Chowk, Katraj, Pune, Maharashtra 411046, India</name>
        <styleUrl>#icon-1899-DB4436-nodesc</styleUrl>
        <Point>
          <coordinates>
            73.8585419,18.448361,0
          </coordinates>
        </Point>
      </Placemark>
    </Folder>
  </Document>
</kml>
